[{"OBJECT_NAME":"GPS BIIF-11","OBJECT_ID":"2015-062A","EPOCH":"2026-03-27T12:15:19.111968","MEAN_MOTION":2.00566923,"ECCENTRICITY":0.01113167,"INCLINATION":56.9083,"RA_OF_ASC_NODE":33.9579,"ARG_OF_PERICENTER":231.5995,"MEAN_ANOMALY":127.3861,"EPHEMERIS_TYPE":0,"CLASSIFICATION_TYPE":"U","NORAD_CAT_ID":41019,"ELEMENT_SET_NO":999,"REV_AT_EPOCH":7619,"BSTAR":0,"MEAN_MOTION_DOT":-7.0e-7,"MEAN_MOTION_DDOT":0},{"OBJECT_NAME":"ELEKTRO-L 2","OBJECT_ID":"2015-074A","EPOCH":"2026-03-29T04:24:29.409408","MEAN_MOTION":1.00271812,"ECCENTRICITY":0.0002847,"INCLINATION":6.494,"RA_OF_ASC_NODE":71.4927,"ARG_OF_PERICENTER":246.003,"MEAN_ANOMALY":280.7222,"EPHEMERIS_TYPE":0,"CLASSIFICATION_TYPE":"U","NORAD_CAT_ID":41105,"ELEMENT_SET_NO":999,"REV_AT_EPOCH":3770,"BSTAR":0,"MEAN_MOTION_DOT":-1.31e-6,"MEAN_MOTION_DDOT":0},{"OBJECT_NAME":"GSAT0209 (GALILEO 12)","OBJECT_ID":"2015-079A","EPOCH":"2026-03-28T02:09:49.627872","MEAN_MOTION":1.70474268,"ECCENTRICITY":0.00053639,"INCLINATION":55.7756,"RA_OF_ASC_NODE":103.4845,"ARG_OF_PERICENTER":324.7749,"MEAN_ANOMALY":35.2418,"EPHEMERIS_TYPE":0,"CLASSIFICATION_TYPE":"U","NORAD_CAT_ID":41174,"ELEMENT_SET_NO":999,"REV_AT_EPOCH":6339,"BSTAR":0,"MEAN_MOTION_DOT":4.1e-7,"MEAN_MOTION_DDOT":0},{"OBJECT_NAME":"GSAT0208 (GALILEO 11)","OBJECT_ID":"2015-079B","EPOCH":"2026-03-28T07:26:58.508160","MEAN_MOTION":1.70474153,"ECCENTRICITY":0.0004862,"INCLINATION":55.7736,"RA_OF_ASC_NODE":103.4753,"ARG_OF_PERICENTER":326.1206,"MEAN_ANOMALY":33.901,"EPHEMERIS_TYPE":0,"CLASSIFICATION_TYPE":"U","NORAD_CAT_ID":41175,"ELEMENT_SET_NO":999,"REV_AT_EPOCH":6381,"BSTAR":0,"MEAN_MOTION_DOT":4.2e-7,"MEAN_MOTION_DDOT":0},{"OBJECT_NAME":"GPS BIIF-12","OBJECT_ID":"2016-007A","EPOCH":"2026-03-28T14:15:38.743488","MEAN_MOTION":2.005555,"ECCENTRICITY":0.00958858,"INCLINATION":55.4724,"RA_OF_ASC_NODE":92.6531,"ARG_OF_PERICENTER":246.602,"MEAN_ANOMALY":112.4215,"EPHEMERIS_TYPE":0,"CLASSIFICATION_TYPE":"U","NORAD_CAT_ID":41328,"ELEMENT_SET_NO":999,"REV_AT_EPOCH":7422,"BSTAR":0,"MEAN_MOTION_DOT":4.3e-7,"MEAN_MOTION_DDOT":0},{"OBJECT_NAME":"GSAT0211 (GALILEO 14)","OBJECT_ID":"2016-030A","EPOCH":"2026-03-27T20:20:51.135648","MEAN_MOTION":1.70473902,"ECCENTRICITY":0.00030274,"INCLINATION":55.1222,"RA_OF_ASC_NODE":223.9297,"ARG_OF_PERICENTER":18.1834,"MEAN_ANOMALY":341.7749,"EPHEMERIS_TYPE":0,"CLASSIFICATION_TYPE":"U","NORAD_CAT_ID":41549,"ELEMENT_SET_NO":999,"REV_AT_EPOCH":6128,"BSTAR":0,"MEAN_MOTION_DOT":-1.5e-7,"MEAN_MOTION_DDOT":0},{"OBJECT_NAME":"GSAT0210 (GALILEO 13)","OBJECT_ID":"2016-030B","EPOCH":"2026-03-27T12:26:38.685120","MEAN_MOTION":1.70473922,"ECCENTRICITY":0.00018137,"INCLINATION":55.1217,"RA_OF_ASC_NODE":223.9368,"ARG_OF_PERICENTER":210.8159,"MEAN_ANOMALY":149.1228,"EPHEMERIS_TYPE":0,"CLASSIFICATION_TYPE":"U","NORAD_CAT_ID":41550,"ELEMENT_SET_NO":999,"REV_AT_EPOCH":6127,"BSTAR":0,"MEAN_MOTION_DOT":-1.2e-7,"MEAN_MOTION_DDOT":0},{"OBJECT_NAME":"INSAT-3DR","OBJECT_ID":"2016-054A","EPOCH":"2026-03-29T03:06:59.343264","MEAN_MOTION":1.00271782,"ECCENTRICITY":0.0012698,"INCLINATION":0.1124,"RA_OF_ASC_NODE":87.6307,"ARG_OF_PERICENTER":195.1229,"MEAN_ANOMALY":24.5052,"EPHEMERIS_TYPE":0,"CLASSIFICATION_TYPE":"U","NORAD_CAT_ID":41752,"ELEMENT_SET_NO":999,"REV_AT_EPOCH":3501,"BSTAR":0,"MEAN_MOTION_DOT":-9.6e-7,"MEAN_MOTION_DDOT":0},{"OBJECT_NAME":"GSAT0207 (GALILEO 15)","OBJECT_ID":"2016-069A","EPOCH":"2026-03-27T19:07:26.359968","MEAN_MOTION":1.70474198,"ECCENTRICITY":0.0005689,"INCLINATION":55.446,"RA_OF_ASC_NODE":103.3365,"ARG_OF_PERICENTER":312.3228,"MEAN_ANOMALY":47.6802,"EPHEMERIS_TYPE":0,"CLASSIFICATION_TYPE":"U","NORAD_CAT_ID":41859,"ELEMENT_SET_NO":999,"REV_AT_EPOCH":5801,"BSTAR":0,"MEAN_MOTION_DOT":3.9e-7,"MEAN_MOTION_DDOT":0},{"OBJECT_NAME":"GSAT0212 (GALILEO 16)","OBJECT_ID":"2016-069B","EPOCH":"2026-03-28T19:45:52.580736","MEAN_MOTION":1.70474393,"ECCENTRICITY":0.00042783,"INCLINATION":55.4444,"RA_OF_ASC_NODE":103.3032,"ARG_OF_PERICENTER":336.2015,"MEAN_ANOMALY":23.8319,"EPHEMERIS_TYPE":0,"CLASSIFICATION_TYPE":"U","NORAD_CAT_ID":41860,"ELEMENT_SET_NO":999,"REV_AT_EPOCH":5828,"BSTAR":0,"MEAN_MOTION_DOT":4.2e-7,"MEAN_MOTION_DDOT":0},{"OBJECT_NAME":"GSAT0213 (GALILEO 17)","OBJECT_ID":"2016-069C","EPOCH":"2026-03-26T20:16:12.674496","MEAN_MOTION":1.70474648,"ECCENTRICITY":0.0005734,"INCLINATION":55.4449,"RA_OF_ASC_NODE":103.3658,"ARG_OF_PERICENTER":297.2228,"MEAN_ANOMALY":62.7676,"EPHEMERIS_TYPE":0,"CLASSIFICATION_TYPE":"U","NORAD_CAT_ID":41861,"ELEMENT_SET_NO":999,"REV_AT_EPOCH":5811,"BSTAR":0,"MEAN_MOTION_DOT":3.6e-7,"MEAN_MOTION_DDOT":0},{"OBJECT_NAME":"GSAT0214 (GALILEO 18)","OBJECT_ID":"2016-069D","EPOCH":"2026-03-28T03:55:55.768224","MEAN_MOTION":1.70474482,"ECCENTRICITY":0.0004756,"INCLINATION":55.4445,"RA_OF_ASC_NODE":103.322,"ARG_OF_PERICENTER":301.5492,"MEAN_ANOMALY":58.4564,"EPHEMERIS_TYPE":0,"CLASSIFICATION_TYPE":"U","NORAD_CAT_ID":41862,"ELEMENT_SET_NO":999,"REV_AT_EPOCH":5826,"BSTAR":0,"MEAN_MOTION_DOT":4.0e-7,"MEAN_MOTION_DDOT":0},{"OBJECT_NAME":"GOES 16","OBJECT_ID":"2016-071A","EPOCH":"2026-03-29T03:58:39.387360","MEAN_MOTION":1.00271594,"ECCENTRICITY":0.0002177,"INCLINATION":0.1593,"RA_OF_ASC_NODE":85.487,"ARG_OF_PERICENTER":233.9683,"MEAN_ANOMALY":182.0751,"EPHEMERIS_TYPE":0,"CLASSIFICATION_TYPE":"U","NORAD_CAT_ID":41866,"ELEMENT_SET_NO":999,"REV_AT_EPOCH":3430,"BSTAR":0,"MEAN_MOTION_DOT":-1.1e-6,"MEAN_MOTION_DDOT":0},{"OBJECT_NAME":"GSAT-17","OBJECT_ID":"2017-040B","EPOCH":"2026-03-29T03:12:28.815840","MEAN_MOTION":1.00270151,"ECCENTRICITY":0.0004474,"INCLINATION":0.0522,"RA_OF_ASC_NODE":74.0444,"ARG_OF_PERICENTER":225.9486,"MEAN_ANOMALY":28.1436,"EPHEMERIS_TYPE":0,"CLASSIFICATION_TYPE":"U","NORAD_CAT_ID":42815,"ELEMENT_SET_NO":999,"REV_AT_EPOCH":3198,"BSTAR":0,"MEAN_MOTION_DOT":-2.77e-6,"MEAN_MOTION_DDOT":0},{"OBJECT_NAME":"GSAT0215 (GALILEO 19)","OBJECT_ID":"2017-079A","EPOCH":"2026-03-28T15:41:32.729856","MEAN_MOTION":1.70474567,"ECCENTRICITY":5.63e-5,"INCLINATION":55.1001,"RA_OF_ASC_NODE":223.7205,"ARG_OF_PERICENTER":287.9107,"MEAN_ANOMALY":72.0267,"EPHEMERIS_TYPE":0,"CLASSIFICATION_TYPE":"U","NORAD_CAT_ID":43055,"ELEMENT_SET_NO":999,"REV_AT_EPOCH":5161,"BSTAR":0,"MEAN_MOTION_DOT":-2.3e-7,"MEAN_MOTION_DDOT":0},{"OBJECT_NAME":"GSAT0216 (GALILEO 20)","OBJECT_ID":"2017-079B","EPOCH":"2026-03-28T08:36:12.435264","MEAN_MOTION":1.70474678,"ECCENTRICITY":0.0001951,"INCLINATION":55.1004,"RA_OF_ASC_NODE":223.7286,"ARG_OF_PERICENTER":299.6924,"MEAN_ANOMALY":60.2331,"EPHEMERIS_TYPE":0,"CLASSIFICATION_TYPE":"U","NORAD_CAT_ID":43056,"ELEMENT_SET_NO":999,"REV_AT_EPOCH":5162,"BSTAR":0,"MEAN_MOTION_DOT":-2.0e-7,"MEAN_MOTION_DDOT":0},{"OBJECT_NAME":"GSAT0217 (GALILEO 21)","OBJECT_ID":"2017-079C","EPOCH":"2026-03-27T23:49:26.202432","MEAN_MOTION":1.70474585,"ECCENTRICITY":0.0001844,"INCLINATION":55.0995,"RA_OF_ASC_NODE":223.7365,"ARG_OF_PERICENTER":336.2846,"MEAN_ANOMALY":23.6537,"EPHEMERIS_TYPE":0,"CLASSIFICATION_TYPE":"U","NORAD_CAT_ID":43057,"ELEMENT_SET_NO":999,"REV_AT_EPOCH":5160,"BSTAR":0,"MEAN_MOTION_DOT":-1.7e-7,"MEAN_MOTION_DDOT":0}]
